start=new Date('2023-05-13T00:00:00.000Z').valueOf();
sats=[{"OBJECT_TYPE":"PAYLOAD","OBJECT_NAME":"STARLINK-4748","APOAPSIS":"540.403","MEAN_MOTION_DOT":"0.00001060","MEAN_MOTION":"15.08834324","PERIOD":"95.438","CENTER_NAME":"EARTH","SITE":"AFETR","MEAN_ANOMALY":"283.5252","TIME_SYSTEM":"UTC","REV_AT_EPOCH":"3706","ARG_OF_PERICENTER":"76.5843","LAUNCH_DATE":"2022-09-19","PERIAPSIS":"539.122","ELEMENT_SET_NO":"999","INCLINATION":"53.2154","OBJECT_ID":"2022-114F","SEMIMAJOR_AXIS":"6917.898","REF_FRAME":"TEME","RA_OF_ASC_NODE":"213.4731","BSTAR":"0.00008468100000","FILE":"3906339","ECCENTRICITY":"0.00009260","GP_ID":"231685072","TLE_LINE1":"1 53823U 22114F   23132.34661206  .00001060  00000-0  84681-4 0  9998","EPOCH":"2023-05-12T08:19:07.281984","DECAY_DATE":null,"MEAN_MOTION_DDOT":"0.0000000000000","MEAN_ELEMENT_THEORY":"SGP4","COUNTRY_CODE":"US","TLE_LINE2":"2 53823  53.2154 213.4731 0000926  76.5843 283.5252 15.08834324 37065","CLASSIFICATION_TYPE":"U","NORAD_CAT_ID":"53823","RCS_SIZE":"LARGE","EPHEMERIS_TYPE":"0"},{"COUNTRY_CODE":"US","MEAN_ELEMENT_THEORY":"SGP4","TLE_LINE2":"2 53824  53.2159 257.3401 0001707  39.8449 320.2668 15.08851331 36936","CLASSIFICATION_TYPE":"U","NORAD_CAT_ID":"53824","RCS_SIZE":"LARGE","EPHEMERIS_TYPE":"0","FILE":"3906381","ECCENTRICITY":"0.00017070","GP_ID":"231710051","TLE_LINE1":"1 53824U 22114G   23132.62768784 -.00002457  00000-0 -13625-3 0  9991","DECAY_DATE":null,"MEAN_MOTION_DDOT":"0.0000000000000","EPOCH":"2023-05-12T15:03:52.229376","ARG_OF_PERICENTER":"39.8449","REV_AT_EPOCH":"3693","LAUNCH_DATE":"2022-09-19","PERIAPSIS":"538.530","ELEMENT_SET_NO":"999","INCLINATION":"53.2159","OBJECT_ID":"2022-114G","SEMIMAJOR_AXIS":"6917.846","REF_FRAME":"TEME","RA_OF_ASC_NODE":"257.3401","BSTAR":"-0.00013625000000","OBJECT_TYPE":"PAYLOAD","OBJECT_NAME":"STARLINK-4757","APOAPSIS":"540.892","MEAN_MOTION_DOT":"-0.00002457","MEAN_MOTION":"15.08851331","PERIOD":"95.437","CENTER_NAME":"EARTH","SITE":"AFETR","TIME_SYSTEM":"UTC","MEAN_ANOMALY":"320.2668"},{"DECAY_DATE":null,"MEAN_MOTION_DDOT":"0.0000000000000","EPOCH":"2023-05-12T15:09:10.260000","TLE_LINE1":"1 53825U 22114H   23132.63136875  .00000462  00000-0  47127-4 0  9990","FILE":"3906381","ECCENTRICITY":"0.00009660","GP_ID":"231709303","EPHEMERIS_TYPE":"0","NORAD_CAT_ID":"53825","RCS_SIZE":"LARGE","MEAN_ELEMENT_THEORY":"SGP4","COUNTRY_CODE":"US","TLE_LINE2":"2 53825  53.2148 257.3528 0000966  66.9305 293.1788 15.08839693 37022","CLASSIFICATION_TYPE":"U","PERIOD":"95.438","SITE":"AFETR","CENTER_NAME":"EARTH","TIME_SYSTEM":"UTC","MEAN_ANOMALY":"293.1788","MEAN_MOTION":"15.08839693","OBJECT_NAME":"STARLINK-4751","APOAPSIS":"540.415","MEAN_MOTION_DOT":"0.00000462","OBJECT_TYPE":"PAYLOAD","RA_OF_ASC_NODE":"257.3528","BSTAR":"0.00004712700000","SEMIMAJOR_AXIS":"6917.881","REF_FRAME":"TEME","ELEMENT_SET_NO":"999","INCLINATION":"53.2148","OBJECT_ID":"2022-114H","REV_AT_EPOCH":"3702","ARG_OF_PERICENTER":"66.9305","LAUNCH_DATE":"2022-09-19","PERIAPSIS":"539.078"},{"TLE_LINE1":"1 53826U 22114J   23132.61294445  .00002522  00000-0  17645-3 0  9997","ECCENTRICITY":"0.00008050","GP_ID":"231709552","FILE":"3906381","DECAY_DATE":null,"MEAN_MOTION_DDOT":"0.0000000000000","EPOCH":"2023-05-12T14:42:38.400480","NORAD_CAT_ID":"53826","RCS_SIZE":"LARGE","CLASSIFICATION_TYPE":"U","COUNTRY_CODE":"US","MEAN_ELEMENT_THEORY":"SGP4","TLE_LINE2":"2 53826  53.2161 257.2417 0000805  65.6973 294.4103 15.08839055 37020","EPHEMERIS_TYPE":"0","APOAPSIS":"540.305","MEAN_MOTION_DOT":"0.00002522","OBJECT_NAME":"STARLINK-4756","OBJECT_TYPE":"PAYLOAD","TIME_SYSTEM":"UTC","MEAN_ANOMALY":"294.4103","PERIOD":"95.438","CENTER_NAME":"EARTH","SITE":"AFETR","MEAN_MOTION":"15.08839055","OBJECT_ID":"2022-114J","INCLINATION":"53.2161","ELEMENT_SET_NO":"999","LAUNCH_DATE":"2022-09-19","PERIAPSIS":"539.191","ARG_OF_PERICENTER":"65.6973","REV_AT_EPOCH":"3702","BSTAR":"0.00017645000000","RA_OF_ASC_NODE":"257.2417","REF_FRAME":"TEME","SEMIMAJOR_AXIS":"6917.883"},{"OBJECT_TYPE":"PAYLOAD","OBJECT_NAME":"STARLINK-4764","MEAN_MOTION_DOT":"0.00024651","APOAPSIS":"540.842","MEAN_MOTION":"15.08802811","SITE":"AFETR","CENTER_NAME":"EARTH","PERIOD":"95.440","MEAN_ANOMALY":"253.0699","TIME_SYSTEM":"UTC","REV_AT_EPOCH":"3702","ARG_OF_PERICENTER":"107.0449","PERIAPSIS":"538.876","LAUNCH_DATE":"2022-09-19","INCLINATION":"53.2165","ELEMENT_SET_NO":"999","OBJECT_ID":"2022-114K","REF_FRAME":"TEME","SEMIMAJOR_AXIS":"6917.994","RA_OF_ASC_NODE":"257.3067","BSTAR":"0.00156310000000","FILE":"3906381","GP_ID":"231710299","ECCENTRICITY":"0.00014210","TLE_LINE1":"1 53827U 22114K   23132.62402147  .00024651  00000-0  15631-2 0  9998","DECAY_DATE":null,"MEAN_MOTION_DDOT":"0.0000000000000","EPOCH":"2023-05-12T14:58:35.455008","TLE_LINE2":"2 53827  53.2165 257.3067 0001421 107.0449 253.0699 15.08802811 37022","MEAN_ELEMENT_THEORY":"SGP4","COUNTRY_CODE":"US","CLASSIFICATION_TYPE":"U","RCS_SIZE":"LARGE","NORAD_CAT_ID":"53827","EPHEMERIS_TYPE":"0"},{"PERIOD":"95.438","CENTER_NAME":"EARTH","SITE":"AFETR","TIME_SYSTEM":"UTC","MEAN_ANOMALY":"316.4856","MEAN_MOTION":"15.08835882","OBJECT_NAME":"STARLINK-4760","APOAPSIS":"539.838","MEAN_MOTION_DOT":"0.00001795","OBJECT_TYPE":"PAYLOAD","RA_OF_ASC_NODE":"257.8124","BSTAR":"0.00013084000000","SEMIMAJOR_AXIS":"6917.893","REF_FRAME":"TEME","INCLINATION":"53.2159","ELEMENT_SET_NO":"999","OBJECT_ID":"2022-114L","REV_AT_EPOCH":"3700","ARG_OF_PERICENTER":"43.6145","LAUNCH_DATE":"2022-09-19","PERIAPSIS":"539.678","DECAY_DATE":null,"MEAN_MOTION_DDOT":"0.0000000000000","EPOCH":"2023-05-12T11:26:33.749664","TLE_LINE1":"1 53828U 22114L   23132.47677951  .00001795  00000-0  13084-3 0  9994","FILE":"3906381","ECCENTRICITY":"0.00001160","GP_ID":"231710551","EPHEMERIS_TYPE":"0","NORAD_CAT_ID":"53828","RCS_SIZE":"LARGE","MEAN_ELEMENT_THEORY":"SGP4","COUNTRY_CODE":"US","TLE_LINE2":"2 53828  53.2159 257.8124 0000116  43.6145 316.4856 15.08835882 37004","CLASSIFICATION_TYPE":"U"},{"EPHEMERIS_TYPE":"0","RCS_SIZE":"LARGE","NORAD_CAT_ID":"53829","CLASSIFICATION_TYPE":"U","TLE_LINE2":"2 53829  53.2166 257.2851 0001146 103.3644 256.7476 15.08840810 37029","COUNTRY_CODE":"US","MEAN_ELEMENT_THEORY":"SGP4","DECAY_DATE":null,"MEAN_MOTION_DDOT":"0.0000000000000","EPOCH":"2023-05-12T14:53:15.114048","TLE_LINE1":"1 53829U 22114M   23132.62031382 -.00000063  00000-0  14113-4 0  9997","GP_ID":"231708804","ECCENTRICITY":"0.00011460","FILE":"3906381","RA_OF_ASC_NODE":"257.2851","BSTAR":"0.00001411300000","SEMIMAJOR_AXIS":"6917.878","REF_FRAME":"TEME","OBJECT_ID":"2022-114M","INCLINATION":"53.2166","ELEMENT_SET_NO":"999","PERIAPSIS":"538.950","LAUNCH_DATE":"2022-09-19","REV_AT_EPOCH":"3702","ARG_OF_PERICENTER":"103.3644","TIME_SYSTEM":"UTC","MEAN_ANOMALY":"256.7476","SITE":"AFETR","CENTER_NAME":"EARTH","PERIOD":"95.438","MEAN_MOTION":"15.08840810","MEAN_MOTION_DOT":"-0.00000063","APOAPSIS":"540.536","OBJECT_NAME":"STARLINK-4759","OBJECT_TYPE":"PAYLOAD"},{"NORAD_CAT_ID":"53830","RCS_SIZE":"LARGE","CLASSIFICATION_TYPE":"U","MEAN_ELEMENT_THEORY":"SGP4","COUNTRY_CODE":"US","TLE_LINE2":"2 53830  53.2161 256.8737 0000968  85.5137 274.5966 15.08842803 37030","EPHEMERIS_TYPE":"0","TLE_LINE1":"1 53830U 22114N   23132.66813188 -.00000071  00000-0  13618-4 0  9993","ECCENTRICITY":"0.00009680","GP_ID":"231709054","FILE":"3906381","MEAN_MOTION_DDOT":"0.0000000000000","DECAY_DATE":null,"EPOCH":"2023-05-12T16:02:06.594432","OBJECT_ID":"2022-114N","INCLINATION":"53.2161","ELEMENT_SET_NO":"999","LAUNCH_DATE":"2022-09-19","PERIAPSIS":"539.067","REV_AT_EPOCH":"3703","ARG_OF_PERICENTER":"85.5137","RA_OF_ASC_NODE":"256.8737","BSTAR":"0.00001361800000","SEMIMAJOR_AXIS":"6917.872","REF_FRAME":"TEME","APOAPSIS":"540.406","MEAN_MOTION_DOT":"-0.00000071","OBJECT_NAME":"STARLINK-4761","OBJECT_TYPE":"PAYLOAD","MEAN_ANOMALY":"274.5966","TIME_SYSTEM":"UTC","PERIOD":"95.437","SITE":"AFETR","CENTER_NAME":"EARTH","MEAN_MOTION":"15.08842803"},{"SEMIMAJOR_AXIS":"6917.875","REF_FRAME":"TEME","RA_OF_ASC_NODE":"257.2597","BSTAR":"-0.00001774100000","REV_AT_EPOCH":"3702","ARG_OF_PERICENTER":"98.2025","LAUNCH_DATE":"2022-09-19","PERIAPSIS":"539.198","INCLINATION":"53.2171","ELEMENT_SET_NO":"999","OBJECT_ID":"2022-114P","MEAN_MOTION":"15.08841859","PERIOD":"95.437","SITE":"AFETR","CENTER_NAME":"EARTH","TIME_SYSTEM":"UTC","MEAN_ANOMALY":"261.9056","OBJECT_TYPE":"PAYLOAD","OBJECT_NAME":"STARLINK-4649","APOAPSIS":"540.281","MEAN_MOTION_DOT":"-0.00000570","EPHEMERIS_TYPE":"0","COUNTRY_CODE":"US","MEAN_ELEMENT_THEORY":"SGP4","TLE_LINE2":"2 53831  53.2171 257.2597 0000783  98.2025 261.9056 15.08841859 37022","CLASSIFICATION_TYPE":"U","NORAD_CAT_ID":"53831","RCS_SIZE":"LARGE","DECAY_DATE":null,"EPOCH":"2023-05-12T14:47:56.630688","MEAN_MOTION_DDOT":"0.0000000000000","FILE":"3906381","ECCENTRICITY":"0.00007830","GP_ID":"231709800","TLE_LINE1":"1 53831U 22114P   23132.61662767 -.00000570  00000-0 -17741-4 0  9990"},{"TLE_LINE2":"2 53832  53.2164 256.8280 0000695  76.8009 283.3061 15.08843400 37034","MEAN_ELEMENT_THEORY":"SGP4","COUNTRY_CODE":"US","CLASSIFICATION_TYPE":"U","RCS_SIZE":"LARGE","NORAD_CAT_ID":"53832","EPHEMERIS_TYPE":"0","FILE":"3906381","GP_ID":"231710052","ECCENTRICITY":"0.00006950","TLE_LINE1":"1 53832U 22114Q   23132.66076062  .00000637  00000-0  58067-4 0  9991","DECAY_DATE":null,"MEAN_MOTION_DDOT":"0.0000000000000","EPOCH":"2023-05-12T15:51:29.717568","ARG_OF_PERICENTER":"76.8009","REV_AT_EPOCH":"3703","PERIAPSIS":"539.254","LAUNCH_DATE":"2022-09-19","INCLINATION":"53.2164","ELEMENT_SET_NO":"999","OBJECT_ID":"2022-114Q","SEMIMAJOR_AXIS":"6917.870","REF_FRAME":"TEME","RA_OF_ASC_NODE":"256.8280","BSTAR":"0.00005806700000","OBJECT_TYPE":"PAYLOAD","OBJECT_NAME":"STARLINK-4747","MEAN_MOTION_DOT":"0.00000637","APOAPSIS":"540.216","MEAN_MOTION":"15.08843400","SITE":"AFETR","CENTER_NAME":"EARTH","PERIOD":"95.437","TIME_SYSTEM":"UTC","MEAN_ANOMALY":"283.3061"}];
